METHANESAT              
1 59101U 24043D   25198.36046190  .00002717  00000+0  25038-3 0  9990
2 59101  97.8037 324.2865 0011961  54.2544 305.9788 14.95492089 74567
GOSAT-GW (IBUKI GW)     
1 64694U 25141A   25198.14825631  .00000621  00000+0  12044-3 0  9999
2 64694  98.0258 136.5272 0006008  93.9105 266.2786 14.66577748  2701
GHGSAT-C1               
1 46278U 20061G   25199.18682511  .00012689  00000+0  21613-3 0  9995
2 46278  97.2493 273.1112 0002433 157.2012 202.9349 15.51516380271396
GHGSAT-C2               
1 47509U 21006DA  25198.60188666  .00004340  00000+0  14001-3 0  9999
2 47509  97.2661 246.7011 0004136 296.9997  63.0822 15.32665090248512
GHGSAT-C3               
1 52737U 22057F   25199.19001754  .00008814  00000+0  31872-3 0  9997
2 52737  97.6163 329.7544 0005968 211.9642 148.1236 15.28674420174416
GHGSAT-C4               
1 52746U 22057Q   25199.20823452  .00004646  00000+0  16940-3 0  9994
2 52746  97.6092 328.9354 0006558 196.9589 163.1432 15.28675370174426
GHGSAT-C5               
1 52744U 22057N   25199.15900177  .00004850  00000+0  17677-3 0  9991
2 52744  97.6249 330.9097 0007082 209.7772 150.3065 15.28661332174417
GHGSAT-C6               
1 56204U 23054AC  25199.20363549  .00007947  00000+0  18662-3 0  9991
2 56204  97.3280 100.4201 0009628 164.6608 195.4933 15.42251374126807
GHGSAT-C7               
1 56209U 23054AH  25199.21194732  .00006469  00000+0  15626-3 0  9998
2 56209  97.3242  99.9896 0009794 158.5261 201.6398 15.41478424126804
GHGSAT-C8               
1 56186U 23054J   25199.24346447  .00007614  00000+0  17892-3 0  9997
2 56186  97.3249  99.9477 0006272 178.3283 181.7986 15.42276926126795
SENTINEL-5P             
1 42969U 17064A   25198.46556388  .00000035  00000+0  37485-4 0  9996
2 42969  98.7586 138.5418 0001324  89.4213 270.7115 14.19532610402070
ENMAP                   
1 52159U 22033C   25198.85375220  .00000284  00000+0  49671-4 0  9993
2 52159  97.9785 280.9062 0001400  86.5550 273.5819 14.74960142177367
PRISMA                  
1 44072U 19015A   25199.16878390  .00000612  00000+0  80482-4 0  9995
2 44072  97.8744 273.7236 0001508  90.3409 269.7978 14.83676779342529
SENTINEL-2A             
1 40697U 15028A   25199.15878742  .00000072  00000+0  44070-4 0  9997
2 40697  98.5685 273.8026 0001189  93.4370 266.6949 14.30817856525964
SENTINEL-2B             
1 42063U 17013A   25199.22153346  .00000069  00000+0  43061-4 0  9991
2 42063  98.5687 273.8063 0001233  99.6009 260.5313 14.30819740436898
SENTINEL-2C             
1 60989U 24157A   25199.18680435  .00000068  00000+0  42746-4 0  9992
2 60989  98.5676 273.8470 0001194  97.7732 262.3587 14.30818364 45220
LANDSAT 8               
1 39084U 13008A   25199.22261028  .00000241  00000+0  63529-4 0  9990
2 39084  98.2243 269.3184 0001335  88.7452 271.3900 14.57103727661083
LANDSAT 9               
1 49260U 21088A   25199.18825301  .00000265  00000+0  68831-4 0  9996
2 49260  98.2263 269.2832 0001479  87.4539 272.6829 14.57100941202352
TANAGER-1               
1 60507U 24149AR  25198.70738106  .00010550  00000+0  23521-3 0  9991
2 60507  97.4051 283.4105 0009698 244.2317 115.7930 15.43724141 51435
